{
  "40258": [
    {
      "epoch": "2026-01-15T07:25:10.093414+00:00",
      "mean_motion": 0.99117132,
      "eccentricity": 0.0003107,
      "inclination": 1.4989,
      "raan": 84.5457,
      "arg_perigee": 187.8598,
      "mean_anomaly": 353.603,
      "bstar": 0.0,
      "tle_line1": "1 40258U 14058A   26015.30914460  .00000070  00000-0  00000+0 0  9994",
      "tle_line2": "2 40258   1.4989  84.5457 0003107 187.8598 353.6030  0.99117132 39456",
      "norad_id": 40258,
      "object_name": "LUCH (OLYMP)"
    },
    {
      "epoch": "2026-01-15T20:25:16.738770+00:00",
      "mean_motion": 0.9911737000000002,
      "eccentricity": 0.0003093,
      "inclination": 1.5002,
      "raan": 84.54,
      "arg_perigee": 188.1938,
      "mean_anomaly": 186.5844,
      "bstar": 0.0,
      "tle_line1": "1 40258U 14058A   26015.85088818  .00000060  00000-0  00000+0 0  9992",
      "tle_line2": "2 40258   1.5002  84.5400 0003093 188.1938 186.5844  0.99117370 39468",
      "norad_id": 40258,
      "object_name": "LUCH (OLYMP)"
    },
    {
      "epoch": "2026-01-21T07:05:55.239929+00:00",
      "mean_motion": 0.9911929200000001,
      "eccentricity": 0.0003158,
      "inclination": 1.5133,
      "raan": 84.4793,
      "arg_perigee": 190.3301,
      "mean_anomaly": 327.427,
      "bstar": 0.0,
      "tle_line1": "1 40258U 14058A   26021.29577824 -.00000067  00000-0  00000+0 0  9995",
      "tle_line2": "2 40258   1.5133  84.4793 0003158 190.3301 327.4270  0.99119292 39518",
      "norad_id": 40258,
      "object_name": "LUCH (OLYMP)"
    },
    {
      "epoch": "2026-01-22T08:45:12.928619+00:00",
      "mean_motion": 0.99119532,
      "eccentricity": 0.0003197,
      "inclination": 1.516,
      "raan": 84.4657,
      "arg_perigee": 190.8467,
      "mean_anomaly": 348.3667,
      "bstar": 0.0,
      "tle_line1": "1 40258U 14058A   26022.36473297 -.00000093  00000-0  00000+0 0  9992",
      "tle_line2": "2 40258   1.5160  84.4657 0003197 190.8467 348.3667  0.99119532 39528",
      "norad_id": 40258,
      "object_name": "LUCH (OLYMP)"
    },
    {
      "epoch": "2026-01-24T03:30:48.135742+00:00",
      "mean_motion": 0.9911983399999998,
      "eccentricity": 0.0003257,
      "inclination": 1.5207,
      "raan": 84.4393,
      "arg_perigee": 191.87350000000004,
      "mean_anomaly": 263.1298,
      "bstar": 0.0,
      "tle_line1": "1 40258U 14058A   26024.14639046 -.00000133  00000-0  00000+0 0  9991",
      "tle_line2": "2 40258   1.5207  84.4393 0003257 191.8735 263.1298  0.99119834 39544",
      "norad_id": 40258,
      "object_name": "LUCH (OLYMP)"
    },
    {
      "epoch": "2026-01-24T06:55:58.802582+00:00",
      "mean_motion": 0.9911984999999999,
      "eccentricity": 0.0003263,
      "inclination": 1.521,
      "raan": 84.4377,
      "arg_perigee": 191.8947,
      "mean_anomaly": 313.9542,
      "bstar": 0.0,
      "tle_line1": "1 40258U 14058A   26024.28887503 -.00000136  00000-0  00000+0 0  9992",
      "tle_line2": "2 40258   1.5210  84.4377 0003263 191.8947 313.9542  0.99119850 39546",
      "norad_id": 40258,
      "object_name": "LUCH (OLYMP)"
    },
    {
      "epoch": "2026-01-25T03:27:24.060699+00:00",
      "mean_motion": 0.99119922,
      "eccentricity": 0.000329,
      "inclination": 1.5233,
      "raan": 84.4234,
      "arg_perigee": 192.3894,
      "mean_anomaly": 258.6258,
      "bstar": 0.0,
      "tle_line1": "1 40258U 14058A   26025.14402848 -.00000155  00000-0  00000+0 0  9994",
      "tle_line2": "2 40258   1.5233  84.4234 0003290 192.3894 258.6258  0.99119922 39550",
      "norad_id": 40258,
      "object_name": "LUCH (OLYMP)"
    },
    {
      "epoch": "2026-01-25T08:35:17.064087+00:00",
      "mean_motion": 0.99119944,
      "eccentricity": 0.0003299,
      "inclination": 1.5239,
      "raan": 84.4211,
      "arg_perigee": 192.432,
      "mean_anomaly": 334.8805,
      "bstar": 0.0,
      "tle_line1": "1 40258U 14058A   26025.35783639 -.00000159  00000-0  00000+0 0  9991",
      "tle_line2": "2 40258   1.5239  84.4211 0003299 192.4320 334.8805  0.99119944 39554",
      "norad_id": 40258,
      "object_name": "LUCH (OLYMP)"
    },
    {
      "epoch": "2026-01-25T20:17:38.424774+00:00",
      "mean_motion": 0.99119953,
      "eccentricity": 0.0003319,
      "inclination": 1.5253000000000003,
      "raan": 84.4131,
      "arg_perigee": 192.686,
      "mean_anomaly": 148.6818,
      "bstar": 0.0,
      "tle_line1": "1 40258U 14058A   26025.84558362 -.00000169  00000-0  00000+0 0  9999",
      "tle_line2": "2 40258   1.5253  84.4131 0003319 192.6860 148.6818  0.99119953 39550",
      "norad_id": 40258,
      "object_name": "LUCH (OLYMP)"
    },
    {
      "epoch": "2026-01-26T08:32:00.192169+00:00",
      "mean_motion": 0.99119999,
      "eccentricity": 0.0003328,
      "inclination": 1.5267000000000002,
      "raan": 84.4049,
      "arg_perigee": 192.9747,
      "mean_anomaly": 330.3802,
      "bstar": 0.0,
      "tle_line1": "1 40258U 14058A   26026.35555778 -.00000180  00000-0  00000+0 0  9997",
      "tle_line2": "2 40258   1.5267  84.4049 0003328 192.9747 330.3802  0.99119999 39564",
      "norad_id": 40258,
      "object_name": "LUCH (OLYMP)"
    },
    {
      "epoch": "2026-01-26T18:31:38.672821+00:00",
      "mean_motion": 0.9911999,
      "eccentricity": 0.0003344,
      "inclination": 1.5279,
      "raan": 84.3978,
      "arg_perigee": 193.1898,
      "mean_anomaly": 118.7662,
      "bstar": 0.0,
      "tle_line1": "1 40258U 14058A   26026.77197538 -.00000188  00000-0  00000+0 0  9997",
      "tle_line2": "2 40258   1.5279  84.3978 0003344 193.1898 118.7662  0.99119990 39568",
      "norad_id": 40258,
      "object_name": "LUCH (OLYMP)"
    },
    {
      "epoch": "2026-01-27T08:28:45.948578+00:00",
      "mean_motion": 0.9912001000000001,
      "eccentricity": 0.0003351,
      "inclination": 1.5295,
      "raan": 84.3891,
      "arg_perigee": 193.5814,
      "mean_anomaly": 325.8262,
      "bstar": 0.0,
      "tle_line1": "1 40258U 14058A   26027.35330959 -.00000199  00000-0  00000+0 0  9990",
      "tle_line2": "2 40258   1.5295  84.3891 0003351 193.5814 325.8262  0.99120010 39573",
      "norad_id": 40258,
      "object_name": "LUCH (OLYMP)"
    },
    {
      "epoch": "2026-01-27T18:44:26.492371+00:00",
      "mean_motion": 0.9911998499999999,
      "eccentricity": 0.0003361,
      "inclination": 1.5307,
      "raan": 84.3824,
      "arg_perigee": 193.8806,
      "mean_anomaly": 118.10120000000002,
      "bstar": 0.0,
      "tle_line1": "1 40258U 14058A   26027.78086218 -.00000207  00000-0  00000+0 0  9993",
      "tle_line2": "2 40258   1.5307  84.3824 0003361 193.8806 118.1012  0.99119985 39573",
      "norad_id": 40258,
      "object_name": "LUCH (OLYMP)"
    },
    {
      "epoch": "2026-01-29T11:21:11.791290+00:00",
      "mean_motion": 0.9911992599999999,
      "eccentricity": 0.0003355,
      "inclination": 1.5356,
      "raan": 84.3592,
      "arg_perigee": 195.3571,
      "mean_anomaly": 0.48780000000000007,
      "bstar": 0.0,
      "tle_line1": "1 40258U 14058A   26029.47305314 -.00000233  00000-0  00000+0 0  9991",
      "tle_line2": "2 40258   1.5356  84.3592 0003355 195.3571   0.4878  0.99119926 39598",
      "norad_id": 40258,
      "object_name": "LUCH (OLYMP)"
    },
    {
      "epoch": "2026-01-29T19:34:38.703949+00:00",
      "mean_motion": 0.99119883,
      "eccentricity": 0.000335,
      "inclination": 1.5366,
      "raan": 84.3543,
      "arg_perigee": 195.6607,
      "mean_anomaly": 122.4679,
      "bstar": 0.0,
      "tle_line1": "1 40258U 14058A   26029.81572574 -.00000238  00000-0  00000+0 0  9998",
      "tle_line2": "2 40258   1.5366  84.3543 0003350 195.6607 122.4679  0.99119883 39599",
      "norad_id": 40258,
      "object_name": "LUCH (OLYMP)"
    },
    {
      "epoch": "2026-01-30T06:36:16.587952+00:00",
      "mean_motion": 0.9911984,
      "eccentricity": 0.0003341,
      "inclination": 1.5379,
      "raan": 84.3481,
      "arg_perigee": 196.0393,
      "mean_anomaly": 286.0508,
      "bstar": 0.0,
      "tle_line1": "1 40258U 14058A   26030.27519199 -.00000243  00000-0  00000+0 0  9990",
      "tle_line2": "2 40258   1.5379  84.3481 0003341 196.0393 286.0508  0.99119840 39604",
      "norad_id": 40258,
      "object_name": "LUCH (OLYMP)"
    },
    {
      "epoch": "2026-01-30T06:36:16.587952+00:00",
      "mean_motion": 0.9911984,
      "eccentricity": 0.0003341,
      "inclination": 1.5379,
      "raan": 84.3481,
      "arg_perigee": 196.0393,
      "mean_anomaly": 286.0508,
      "bstar": 0.0,
      "tle_line1": "1 40258U 14058A   26030.27519199 -.00000243  00000-0  00000+0 0  9990",
      "tle_line2": "2 40258   1.5379  84.3481 0003341 196.0393 286.0508  0.99119840 39604",
      "norad_id": 40258,
      "object_name": "LUCH (OLYMP)"
    },
    {
      "epoch": "2026-01-30T08:18:51.759369+00:00",
      "mean_motion": 0.99119842,
      "eccentricity": 0.0003337,
      "inclination": 1.5381,
      "raan": 84.3476,
      "arg_perigee": 196.11770000000004,
      "mean_anomaly": 311.3944,
      "bstar": 0.0,
      "tle_line1": "1 40258U 14058A   26030.34643240 -.00000243  00000-0  00000+0 0  9993",
      "tle_line2": "2 40258   1.5381  84.3476 0003337 196.1177 311.3944  0.99119842 39605",
      "norad_id": 40258,
      "object_name": "LUCH (OLYMP)"
    },
    {
      "epoch": "2026-02-01T08:12:19.039368+00:00",
      "mean_motion": 0.99114888,
      "eccentricity": 0.0003908,
      "inclination": 1.5403,
      "raan": 84.5123,
      "arg_perigee": 195.3116,
      "mean_anomaly": 304.062,
      "bstar": 0.0,
      "tle_line1": "1 40258U 14058A   26032.34188703 -.00000254  00000-0  00000+0 0  9995",
      "tle_line2": "2 40258   1.5403  84.5123 0003908 195.3116 304.0620  0.99114888 39626",
      "norad_id": 40258,
      "object_name": "LUCH (OLYMP)"
    }
  ],
  "44878": []
}